ICEYE-X49               
1 62384U 24247H   26175.10138743  .00003681  00000+0  21900-3 0  9992
2 62384  44.9990 320.4824 0001286 269.5234  90.5496 15.13036252 83227
ICEYE-X50               
1 63255U 25052AX  26175.25117230  .00001779  00000+0  16662-3 0  9994
2 63255  97.6889  67.0108 0002325 139.3156 220.8239 14.95300329 69706
ICEYE-X51               
1 63257U 25052AZ  26175.19137043  .00003679  00000+0  29385-3 0  9990
2 63257  97.7573  70.2716 0001942  69.3292 290.8140 15.00881487 69857
ICEYE-X54               
1 64570U 25135AU  26175.32204784  .00002583  00000+0  24414-3 0  9994
2 64570  97.7723 289.6751 0000775 301.7228  58.3917 14.94566854 54968
ICEYE-X52               
1 64572U 25135AW  26175.23833267  .00001203  00000+0  11944-3 0  9992
2 64572  97.7752 289.4092 0001046 353.8768   6.2439 14.93579859 54933
ICEYE-X56               
1 64574U 25135AY  26175.32406532  .00002937  00000+0  26945-3 0  9997
2 64574  97.7743 290.2257 0000896 352.9771   7.1437 14.95641267 54993
ICEYE-X57               
1 64578U 25135BC  26175.33362162  .00006134  00000+0  48681-3 0  9996
2 64578  97.7960 291.8167 0002010  61.9688 298.1738 15.00867284 55093
ICEYE-X55               
1 64581U 25135BF  26175.32593905  .00003014  00000+0  27923-3 0  9990
2 64581  97.7743 290.0665 0002234 351.1975   8.9206 14.95241685 54989
ICEYE-X53               
1 64584U 25135BJ  26175.29124568  .00002703  00000+0  21691-3 0  9994
2 64584  97.7377 292.0447 0001322 166.9131 193.2127 15.00931846 55149
ICEYE-X58               
1 66751U 25276CP  26175.17679959  .00002615  00000+0  13413-3 0  9999
2 66751  97.4206 248.4839 0002176 339.9294  20.1854 15.17408516 31471
