{
 "generated_at": "2026-06-25T08:23:36Z",
 "sources": [
  {
   "name": "CelesTrak",
   "url": "https://celestrak.org/NORAD/elements/",
   "license": "frei verfügbar; Attribution. Ursprünglich USSPACECOM/Space-Track."
  },
  {
   "name": "GCAT (J. McDowell, planet4589.org)",
   "url": "https://planet4589.org/space/gcat/",
   "license": "CC-BY 4.0"
  }
 ],
 "satellites": [
  {
   "norad": 62384,
   "name": "ICEYE-X49",
   "intl": "2024-247H",
   "group": "sar",
   "gcat": {
    "class": "B",
    "category": "IMG-R",
    "owner": "ICEYE",
    "state": "FI"
   },
   "omm": {
    "OBJECT_NAME": "ICEYE-X49",
    "OBJECT_ID": "2024-247H",
    "EPOCH": "2026-06-24T02:25:59.873952",
    "MEAN_MOTION": 15.13036252,
    "ECCENTRICITY": 0.00012864,
    "INCLINATION": 44.999,
    "RA_OF_ASC_NODE": 320.4824,
    "ARG_OF_PERICENTER": 269.5234,
    "MEAN_ANOMALY": 90.5496,
    "EPHEMERIS_TYPE": 0,
    "CLASSIFICATION_TYPE": "U",
    "NORAD_CAT_ID": 62384,
    "ELEMENT_SET_NO": 999,
    "REV_AT_EPOCH": 8322,
    "BSTAR": 0.00021900381,
    "MEAN_MOTION_DOT": 0.00003681,
    "MEAN_MOTION_DDOT": 0
   }
  },
  {
   "norad": 63255,
   "name": "ICEYE-X50",
   "intl": "2025-052AX",
   "group": "sar",
   "gcat": {
    "class": "B",
    "category": "IMG-R",
    "owner": "ICEYE",
    "state": "FI"
   },
   "omm": {
    "OBJECT_NAME": "ICEYE-X50",
    "OBJECT_ID": "2025-052AX",
    "EPOCH": "2026-06-24T06:01:41.286720",
    "MEAN_MOTION": 14.95300329,
    "ECCENTRICITY": 0.00023258,
    "INCLINATION": 97.6889,
    "RA_OF_ASC_NODE": 67.0108,
    "ARG_OF_PERICENTER": 139.3156,
    "MEAN_ANOMALY": 220.8239,
    "EPHEMERIS_TYPE": 0,
    "CLASSIFICATION_TYPE": "U",
    "NORAD_CAT_ID": 63255,
    "ELEMENT_SET_NO": 999,
    "REV_AT_EPOCH": 6970,
    "BSTAR": 0.00016661771,
    "MEAN_MOTION_DOT": 0.00001779,
    "MEAN_MOTION_DDOT": 0
   }
  },
  {
   "norad": 63257,
   "name": "ICEYE-X51",
   "intl": "2025-052AZ",
   "group": "sar",
   "gcat": {
    "class": "B",
    "category": "IMG-R",
    "owner": "ICEUS",
    "state": "US"
   },
   "omm": {
    "OBJECT_NAME": "ICEYE-X51",
    "OBJECT_ID": "2025-052AZ",
    "EPOCH": "2026-06-24T04:35:34.405152",
    "MEAN_MOTION": 15.00881487,
    "ECCENTRICITY": 0.00019425,
    "INCLINATION": 97.7573,
    "RA_OF_ASC_NODE": 70.2716,
    "ARG_OF_PERICENTER": 69.3292,
    "MEAN_ANOMALY": 290.814,
    "EPHEMERIS_TYPE": 0,
    "CLASSIFICATION_TYPE": "U",
    "NORAD_CAT_ID": 63257,
    "ELEMENT_SET_NO": 999,
    "REV_AT_EPOCH": 6985,
    "BSTAR": 0.0002938537,
    "MEAN_MOTION_DOT": 0.00003679,
    "MEAN_MOTION_DDOT": 0
   }
  },
  {
   "norad": 64572,
   "name": "ICEYE-X52",
   "intl": "2025-135AW",
   "group": "sar",
   "gcat": {
    "class": "B",
    "category": "IMG-R",
    "owner": "ICEYE",
    "state": "FI"
   },
   "omm": {
    "OBJECT_NAME": "ICEYE-X52",
    "OBJECT_ID": "2025-135AW",
    "EPOCH": "2026-06-24T05:43:11.942688",
    "MEAN_MOTION": 14.93579859,
    "ECCENTRICITY": 0.00010464,
    "INCLINATION": 97.7752,
    "RA_OF_ASC_NODE": 289.4092,
    "ARG_OF_PERICENTER": 353.8768,
    "MEAN_ANOMALY": 6.2439,
    "EPHEMERIS_TYPE": 0,
    "CLASSIFICATION_TYPE": "U",
    "NORAD_CAT_ID": 64572,
    "ELEMENT_SET_NO": 999,
    "REV_AT_EPOCH": 5493,
    "BSTAR": 0.00011943728,
    "MEAN_MOTION_DOT": 0.00001203,
    "MEAN_MOTION_DDOT": 0
   }
  },
  {
   "norad": 64584,
   "name": "ICEYE-X53",
   "intl": "2025-135BJ",
   "group": "sar",
   "gcat": {
    "class": "B",
    "category": "IMG-R",
    "owner": "ICEYE",
    "state": "FI"
   },
   "omm": {
    "OBJECT_NAME": "ICEYE-X53",
    "OBJECT_ID": "2025-135BJ",
    "EPOCH": "2026-06-24T06:59:23.626752",
    "MEAN_MOTION": 15.00931846,
    "ECCENTRICITY": 0.00013221,
    "INCLINATION": 97.7377,
    "RA_OF_ASC_NODE": 292.0447,
    "ARG_OF_PERICENTER": 166.9131,
    "MEAN_ANOMALY": 193.2127,
    "EPHEMERIS_TYPE": 0,
    "CLASSIFICATION_TYPE": "U",
    "NORAD_CAT_ID": 64584,
    "ELEMENT_SET_NO": 999,
    "REV_AT_EPOCH": 5514,
    "BSTAR": 0.00021690524,
    "MEAN_MOTION_DOT": 0.00002703,
    "MEAN_MOTION_DDOT": 0
   }
  },
  {
   "norad": 64570,
   "name": "ICEYE-X54",
   "intl": "2025-135AU",
   "group": "sar",
   "gcat": {
    "class": "B",
    "category": "IMG-R",
    "owner": "ICEYE",
    "state": "FI"
   },
   "omm": {
    "OBJECT_NAME": "ICEYE-X54",
    "OBJECT_ID": "2025-135AU",
    "EPOCH": "2026-06-24T07:43:44.933376",
    "MEAN_MOTION": 14.94566854,
    "ECCENTRICITY": 0.00007759,
    "INCLINATION": 97.7723,
    "RA_OF_ASC_NODE": 289.6751,
    "ARG_OF_PERICENTER": 301.7228,
    "MEAN_ANOMALY": 58.3917,
    "EPHEMERIS_TYPE": 0,
    "CLASSIFICATION_TYPE": "U",
    "NORAD_CAT_ID": 64570,
    "ELEMENT_SET_NO": 999,
    "REV_AT_EPOCH": 5496,
    "BSTAR": 0.00024414055,
    "MEAN_MOTION_DOT": 0.00002583,
    "MEAN_MOTION_DDOT": 0
   }
  },
  {
   "norad": 64581,
   "name": "ICEYE-X55",
   "intl": "2025-135BF",
   "group": "sar",
   "gcat": {
    "class": "B",
    "category": "IMG-R",
    "owner": "ICEYE",
    "state": "FI"
   },
   "omm": {
    "OBJECT_NAME": "ICEYE-X55",
    "OBJECT_ID": "2025-135BF",
    "EPOCH": "2026-06-24T07:49:21.133920",
    "MEAN_MOTION": 14.95241685,
    "ECCENTRICITY": 0.00022347,
    "INCLINATION": 97.7743,
    "RA_OF_ASC_NODE": 290.0665,
    "ARG_OF_PERICENTER": 351.1975,
    "MEAN_ANOMALY": 8.9206,
    "EPHEMERIS_TYPE": 0,
    "CLASSIFICATION_TYPE": "U",
    "NORAD_CAT_ID": 64581,
    "ELEMENT_SET_NO": 999,
    "REV_AT_EPOCH": 5498,
    "BSTAR": 0.00027923079,
    "MEAN_MOTION_DOT": 0.00003014,
    "MEAN_MOTION_DDOT": 0
   }
  },
  {
   "norad": 64574,
   "name": "ICEYE-X56",
   "intl": "2025-135AY",
   "group": "sar",
   "gcat": {
    "class": "B",
    "category": "IMG-R",
    "owner": "ICEYE",
    "state": "FI"
   },
   "omm": {
    "OBJECT_NAME": "ICEYE-X56",
    "OBJECT_ID": "2025-135AY",
    "EPOCH": "2026-06-24T07:46:39.243648",
    "MEAN_MOTION": 14.95641267,
    "ECCENTRICITY": 0.0000896,
    "INCLINATION": 97.7743,
    "RA_OF_ASC_NODE": 290.2257,
    "ARG_OF_PERICENTER": 352.9771,
    "MEAN_ANOMALY": 7.1437,
    "EPHEMERIS_TYPE": 0,
    "CLASSIFICATION_TYPE": "U",
    "NORAD_CAT_ID": 64574,
    "ELEMENT_SET_NO": 999,
    "REV_AT_EPOCH": 5499,
    "BSTAR": 0.00026945488,
    "MEAN_MOTION_DOT": 0.00002937,
    "MEAN_MOTION_DDOT": 0
   }
  },
  {
   "norad": 64578,
   "name": "ICEYE-X57",
   "intl": "2025-135BC",
   "group": "sar",
   "gcat": {
    "class": "B",
    "category": "IMG-R",
    "owner": "ICEUS",
    "state": "US"
   },
   "omm": {
    "OBJECT_NAME": "ICEYE-X57",
    "OBJECT_ID": "2025-135BC",
    "EPOCH": "2026-06-24T08:00:24.907968",
    "MEAN_MOTION": 15.00867284,
    "ECCENTRICITY": 0.00020107,
    "INCLINATION": 97.796,
    "RA_OF_ASC_NODE": 291.8167,
    "ARG_OF_PERICENTER": 61.9688,
    "MEAN_ANOMALY": 298.1738,
    "EPHEMERIS_TYPE": 0,
    "CLASSIFICATION_TYPE": "U",
    "NORAD_CAT_ID": 64578,
    "ELEMENT_SET_NO": 999,
    "REV_AT_EPOCH": 5509,
    "BSTAR": 0.00048681383,
    "MEAN_MOTION_DOT": 0.00006134,
    "MEAN_MOTION_DDOT": 0
   }
  },
  {
   "norad": 66751,
   "name": "ICEYE-X58",
   "intl": "2025-276CP",
   "group": "sar",
   "gcat": {
    "class": "B",
    "category": "IMG-R",
    "owner": "ICEYE",
    "state": "FI"
   },
   "omm": {
    "OBJECT_NAME": "ICEYE-X58",
    "OBJECT_ID": "2025-276CP",
    "EPOCH": "2026-06-24T04:14:35.484576",
    "MEAN_MOTION": 15.17408516,
    "ECCENTRICITY": 0.00021768,
    "INCLINATION": 97.4206,
    "RA_OF_ASC_NODE": 248.4839,
    "ARG_OF_PERICENTER": 339.9294,
    "MEAN_ANOMALY": 20.1854,
    "EPHEMERIS_TYPE": 0,
    "CLASSIFICATION_TYPE": "U",
    "NORAD_CAT_ID": 66751,
    "ELEMENT_SET_NO": 999,
    "REV_AT_EPOCH": 3147,
    "BSTAR": 0.0001341264,
    "MEAN_MOTION_DOT": 0.00002615,
    "MEAN_MOTION_DDOT": 0
   }
  }
 ]
}
